[{"OBJECT_NAME":"STARLINK-30915","OBJECT_ID":"2023-178G","EPOCH":"2026-03-09T22:21:53.881632","MEAN_MOTION":15.30645879,"ECCENTRICITY":9.681e-5,"INCLINATION":53.1565,"RA_OF_ASC_NODE":270.194,"ARG_OF_PERICENTER":62.1565,"MEAN_ANOMALY":297.9534,"EPHEMERIS_TYPE":0,"CLASSIFICATION_TYPE":"U","NORAD_CAT_ID":58380,"ELEMENT_SET_NO":999,"REV_AT_EPOCH":13115,"BSTAR":0.00056105121,"MEAN_MOTION_DOT":0.00016525,"MEAN_MOTION_DDOT":0},{"OBJECT_NAME":"CZ-4 DEB","OBJECT_ID":"2003-049H","EPOCH":"2026-03-08T08:27:28.944576","MEAN_MOTION":15.27137095,"ECCENTRICITY":0.00307627,"INCLINATION":98.6284,"RA_OF_ASC_NODE":272.5918,"ARG_OF_PERICENTER":169.0311,"MEAN_ANOMALY":191.1601,"EPHEMERIS_TYPE":0,"CLASSIFICATION_TYPE":"U","NORAD_CAT_ID":35381,"ELEMENT_SET_NO":999,"REV_AT_EPOCH":18390,"BSTAR":0.0032047887,"MEAN_MOTION_DOT":0.00087287,"MEAN_MOTION_DDOT":0}]
